{
  "norad_id": 63594,
  "name": "STARLINK-33791",
  "history": [
    {
      "epoch": "2026-03-28T18:04:54.315552",
      "apogee_km": 484.0762293411708,
      "perigee_km": 481.8668151748325,
      "latitude_deg": -35.53274493423851,
      "longitude_deg": -108.27298272005282,
      "semi_major_axis_km": 6861.108522258001,
      "eccentricity": 0.00016101,
      "inclination_deg": 43.0011,
      "raan_deg": 214.2279,
      "arg_perigee_deg": 267.3282,
      "mean_anomaly_deg": 92.7385,
      "mean_motion_rev_day": 15.27605907
    }
  ]
}