{"fetched_at":"2026-03-29T16:36:15Z","count":15609,"tles":[{"name":"STARLINK-33791","line1":"1 63594U 25076AB  26087.75340643  .00023042  00000+0  84358-3 0  9993","line2":"2 63594  43.0011 214.2279 0001610 267.3282  92.7385 15.27605907 54749","category":"Starlink"}]}